{
  "type": "FeatureCollection",
  "comment": "Traced, split and hand-corrected over satellite imagery, 8-9 September 2026; the north-east corner of Trinity Campus added 22 September 2026; Central and Spear Street extended at their edges 25 September 2026. All areas are real. The boundary is two parts: the main campus and the detached Spear Street parcel. Each campus here has a matching row in collections.csv, which is what the map filters by. See docs/CAMPUS-AREAS.md.",
  "features": [
    {
      "type": "Feature",
      "properties": {
        "area_id": "campus-boundary",
        "name": "UVM campus",
        "kind": "boundary",
        "color": "#154734",
        "description": "The outer edge of university land in Burlington.",
        "provisional": false
      },
      "geometry": {
        "type": "MultiPolygon",
        "coordinates": [
          [
            [
              [
                -73.20347875356676,
                44.48083948386525
              ],
              [
                -73.20347070693971,
                44.48076674171999
              ],
              [
                -73.20347010820807,
                44.48076675015373
              ],
              [
                -73.203084,
                44.476329
              ],
              [
                -73.203449,
                44.476321
              ],
              [
                -73.203288,
                44.473948
              ],
              [
                -73.202173,
                44.473979
              ],
              [
                -73.20230814646831,
                44.47616759496524
              ],
              [
                -73.20078569917868,
                44.47620724654346
              ],
              [
                -73.200735,
                44.474538
              ],
              [
                -73.199115,
                44.474614
              ],
              [
                -73.199168,
                44.475449
              ],
              [
                -73.199021,
                44.475707
              ],
              [
                -73.198989,
                44.475763
              ],
              [
                -73.19866644951794,
                44.476151526717025
              ],
              [
                -73.19674372673036,
                44.4753258402015
              ],
              [
                -73.19670885801317,
                44.475364129122575
              ],
              [
                -73.1967191180837,
                44.475369841197995
              ],
              [
                -73.196706,
                44.475364
              ],
              [
                -73.19698,
                44.475051
              ],
              [
                -73.196497,
                44.474829
              ],
              [
                -73.197532,
                44.473669
              ],
              [
                -73.197784,
                44.47244
              ],
              [
                -73.197806,
                44.471996
              ],
              [
                -73.19779,
                44.47164
              ],
              [
                -73.200536,
                44.471582
              ],
              [
                -73.200429,
                44.468811
              ],
              [
                -73.201389,
                44.465687
              ],
              [
                -73.199126,
                44.465798
              ],
              [
                -73.198417,
                44.465963
              ],
              [
                -73.19838,
                44.465993
              ],
              [
                -73.198385,
                44.466506
              ],
              [
                -73.19146,
                44.466924
              ],
              [
                -73.192356,
                44.471659
              ],
              [
                -73.191728,
                44.471739
              ],
              [
                -73.191717,
                44.471682
              ],
              [
                -73.190998,
                44.471762
              ],
              [
                -73.191106,
                44.471931
              ],
              [
                -73.190628,
                44.472092
              ],
              [
                -73.190258,
                44.472471
              ],
              [
                -73.190108,
                44.472405
              ],
              [
                -73.18992,
                44.472559
              ],
              [
                -73.189808,
                44.472451
              ],
              [
                -73.188552,
                44.471908
              ],
              [
                -73.187254,
                44.473366
              ],
              [
                -73.186744,
                44.473206
              ],
              [
                -73.186621,
                44.473121
              ],
              [
                -73.186187,
                44.47301
              ],
              [
                -73.184652,
                44.472559
              ],
              [
                -73.183697,
                44.472413
              ],
              [
                -73.182673,
                44.472938
              ],
              [
                -73.177003,
                44.478802
              ],
              [
                -73.180736,
                44.481106
              ],
              [
                -73.180983,
                44.481014
              ],
              [
                -73.18108,
                44.480907
              ],
              [
                -73.181595,
                44.481205
              ],
              [
                -73.181562,
                44.481611
              ],
              [
                -73.183933,
                44.48302
              ],
              [
                -73.184223,
                44.483326
              ],
              [
                -73.184631,
                44.484344
              ],
              [
                -73.184663,
                44.484482
              ],
              [
                -73.184652,
                44.484964
              ],
              [
                -73.186551,
                44.482315
              ],
              [
                -73.187817,
                44.483693
              ],
              [
                -73.189652,
                44.482897
              ],
              [
                -73.188719,
                44.481825
              ],
              [
                -73.191369,
                44.480769
              ],
              [
                -73.191272,
                44.480226
              ],
              [
                -73.19007,
                44.480294
              ],
              [
                -73.18948,
                44.479215
              ],
              [
                -73.188515,
                44.479246
              ],
              [
                -73.188204,
                44.478166
              ],
              [
                -73.188536,
                44.477133
              ],
              [
                -73.190392,
                44.477003
              ],
              [
                -73.190199,
                44.476306
              ],
              [
                -73.190349,
                44.476275
              ],
              [
                -73.190328,
                44.476122
              ],
              [
                -73.190918,
                44.476076
              ],
              [
                -73.190854,
                44.475755
              ],
              [
                -73.190274,
                44.475763
              ],
              [
                -73.190081,
                44.475165
              ],
              [
                -73.190703,
                44.475097
              ],
              [
                -73.190907,
                44.475127
              ],
              [
                -73.191143,
                44.476053
              ],
              [
                -73.191551,
                44.475992
              ],
              [
                -73.19213,
                44.478205
              ],
              [
                -73.191712,
                44.478243
              ],
              [
                -73.192731,
                44.482262
              ],
              [
                -73.191036,
                44.483027
              ],
              [
                -73.190634,
                44.483175
              ],
              [
                -73.190894,
                44.483478
              ],
              [
                -73.190755,
                44.483539
              ],
              [
                -73.191039,
                44.483866
              ],
              [
                -73.190808,
                44.483952
              ],
              [
                -73.190578,
                44.483726
              ],
              [
                -73.190251,
                44.483845
              ],
              [
                -73.190709,
                44.484516
              ],
              [
                -73.191889,
                44.484083
              ],
              [
                -73.193096,
                44.485576
              ],
              [
                -73.193729,
                44.485301
              ],
              [
                -73.193911,
                44.484948
              ],
              [
                -73.193536,
                44.484489
              ],
              [
                -73.193396,
                44.484198
              ],
              [
                -73.193579,
                44.483839
              ],
              [
                -73.195649,
                44.482897
              ],
              [
                -73.195896,
                44.482997
              ],
              [
                -73.196422,
                44.482713
              ],
              [
                -73.195735,
                44.481925
              ],
              [
                -73.195413,
                44.482078
              ],
              [
                -73.19521,
                44.481833
              ],
              [
                -73.194255,
                44.482254
              ],
              [
                -73.193868,
                44.481795
              ],
              [
                -73.196186,
                44.48083
              ],
              [
                -73.19850745923844,
                44.480727568602674
              ],
              [
                -73.19865211844446,
                44.48144739053451
              ],
              [
                -73.19878194249559,
                44.48144275787617
              ],
              [
                -73.198782,
                44.481443
              ],
              [
                -73.200724,
                44.481313
              ],
              [
                -73.2006495343536,
                44.4809445501871
              ],
              [
                -73.20347875356676,
                44.48083948386525
              ]
            ]
          ],
          [
            [
              [
                -73.196626,
                44.456605
              ],
              [
                -73.196003,
                44.453358
              ],
              [
                -73.194029,
                44.453435
              ],
              [
                -73.193665,
                44.451175
              ],
              [
                -73.192227,
                44.45152
              ],
              [
                -73.191744,
                44.451566
              ],
              [
                -73.189867,
                44.451957
              ],
              [
                -73.188772,
                44.452608
              ],
              [
                -73.188976,
                44.453672
              ],
              [
                -73.189448,
                44.456284
              ],
              [
                -73.184695,
                44.456781
              ],
              [
                -73.18584255304799,
                44.46334944170589
              ],
              [
                -73.18584054708482,
                44.4633496513525
              ],
              [
                -73.18587541580202,
                44.4635124124868
              ],
              [
                -73.19085627794267,
                44.46295327822142
              ],
              [
                -73.19082862456827,
                44.46284634234686
              ],
              [
                -73.190832,
                44.462846
              ],
              [
                -73.189931,
                44.458183
              ],
              [
                -73.191701,
                44.457662
              ],
              [
                -73.194973,
                44.456797
              ],
              [
                -73.196626,
                44.456605
              ]
            ]
          ]
        ]
      }
    },
    {
      "type": "Feature",
      "properties": {
        "area_id": "central",
        "name": "Central Campus",
        "kind": "campus",
        "color": "#154734",
        "description": "The academic core, from the Green east to East Avenue.",
        "provisional": false
      },
      "geometry": {
        "type": "Polygon",
        "coordinates": [
          [
            [
              -73.20347875356676,
              44.48083948386525
            ],
            [
              -73.20347070693971,
              44.48076674171999
            ],
            [
              -73.20347010820807,
              44.48076675015373
            ],
            [
              -73.203084,
              44.476329
            ],
            [
              -73.203449,
              44.476321
            ],
            [
              -73.203288,
              44.473948
            ],
            [
              -73.202173,
              44.473979
            ],
            [
              -73.20230814646831,
              44.47616759496524
            ],
            [
              -73.20078569917868,
              44.47620724654346
            ],
            [
              -73.200735,
              44.474538
            ],
            [
              -73.19921034211355,
              44.474609527160105
            ],
            [
              -73.19912292440414,
              44.47473884674437
            ],
            [
              -73.199168,
              44.475449
            ],
            [
              -73.199021,
              44.475707
            ],
            [
              -73.198989,
              44.475763
            ],
            [
              -73.19866644951794,
              44.476151526717025
            ],
            [
              -73.19674372673036,
              44.4753258402015
            ],
            [
              -73.19670885801317,
              44.475364129122575
            ],
            [
              -73.19671911808369,
              44.47536984119798
            ],
            [
              -73.19671085969944,
              44.47536616391869
            ],
            [
              -73.19671898259753,
              44.475369780868945
            ],
            [
              -73.1966959381927,
              44.47540883385851
            ],
            [
              -73.19669205356934,
              44.47541994243144
            ],
            [
              -73.19668993015532,
              44.475419015584755
            ],
            [
              -73.19667130708696,
              44.475450575805134
            ],
            [
              -73.19004185862546,
              44.472537129185
            ],
            [
              -73.19004426907892,
              44.472546457592195
            ],
            [
              -73.18992698668198,
              44.47255327686688
            ],
            [
              -73.18992050524253,
              44.472558586131115
            ],
            [
              -73.19013476371767,
              44.47289834484868
            ],
            [
              -73.19013495427012,
              44.472897407488084
            ],
            [
              -73.1907033402637,
              44.47509705003878
            ],
            [
              -73.19077359193797,
              44.47510738116735
            ],
            [
              -73.190907,
              44.475127
            ],
            [
              -73.191143,
              44.476053
            ],
            [
              -73.191551,
              44.475992
            ],
            [
              -73.19213,
              44.478205
            ],
            [
              -73.191712,
              44.478243
            ],
            [
              -73.1927216866954,
              44.48222526774178
            ],
            [
              -73.1927308944757,
              44.482261583805546
            ],
            [
              -73.19273114204408,
              44.48226148111708
            ],
            [
              -73.19273590028536,
              44.48226597107974
            ],
            [
              -73.19385689208751,
              44.48178272384612
            ],
            [
              -73.19386819815429,
              44.481794917506946
            ],
            [
              -73.19536449772482,
              44.481171997280214
            ],
            [
              -73.19539565852507,
              44.481159024815916
            ],
            [
              -73.19562813997855,
              44.481062241121954
            ],
            [
              -73.196186,
              44.48083
            ],
            [
              -73.19850745923844,
              44.480727568602674
            ],
            [
              -73.19865211844446,
              44.48144739053451
            ],
            [
              -73.19878194249559,
              44.48144275787617
            ],
            [
              -73.198782,
              44.481443
            ],
            [
              -73.200724,
              44.481313
            ],
            [
              -73.2006495343536,
              44.4809445501871
            ],
            [
              -73.20347875356676,
              44.48083948386525
            ]
          ]
        ]
      }
    },
    {
      "type": "Feature",
      "properties": {
        "area_id": "trinity",
        "name": "Trinity Campus",
        "kind": "campus",
        "color": "#1d6fe0",
        "description": "The former Trinity College grounds, north of Colchester Avenue.",
        "provisional": false
      },
      "geometry": {
        "type": "Polygon",
        "coordinates": [
          [
            [
              -73.196422,
              44.482713
            ],
            [
              -73.195735,
              44.481925
            ],
            [
              -73.195413,
              44.482078
            ],
            [
              -73.19521,
              44.481833
            ],
            [
              -73.194255,
              44.482254
            ],
            [
              -73.193868,
              44.481795
            ],
            [
              -73.193868,
              44.481795
            ],
            [
              -73.193857,
              44.481783
            ],
            [
              -73.192736,
              44.482266
            ],
            [
              -73.192731,
              44.482261
            ],
            [
              -73.192731,
              44.482262
            ],
            [
              -73.192731,
              44.482262
            ],
            [
              -73.191036,
              44.483027
            ],
            [
              -73.191036,
              44.483027
            ],
            [
              -73.190634,
              44.483175
            ],
            [
              -73.190894,
              44.483478
            ],
            [
              -73.190755,
              44.483539
            ],
            [
              -73.191039,
              44.483866
            ],
            [
              -73.190808,
              44.483952
            ],
            [
              -73.190578,
              44.483726
            ],
            [
              -73.190251,
              44.483845
            ],
            [
              -73.190709,
              44.484516
            ],
            [
              -73.191889,
              44.484083
            ],
            [
              -73.193096,
              44.485576
            ],
            [
              -73.193729,
              44.485301
            ],
            [
              -73.193911,
              44.484948
            ],
            [
              -73.193536,
              44.484489
            ],
            [
              -73.193396,
              44.484198
            ],
            [
              -73.193579,
              44.483839
            ],
            [
              -73.195649,
              44.482897
            ],
            [
              -73.195896,
              44.482997
            ],
            [
              -73.196422,
              44.482713
            ]
          ]
        ]
      }
    },
    {
      "type": "Feature",
      "properties": {
        "area_id": "centennial",
        "name": "Centennial Campus",
        "kind": "campus",
        "color": "#8a5a00",
        "description": "East of East Avenue, running into Centennial Woods.",
        "provisional": false
      },
      "geometry": {
        "type": "Polygon",
        "coordinates": [
          [
            [
              -73.191369,
              44.480769
            ],
            [
              -73.191272,
              44.480226
            ],
            [
              -73.19007,
              44.480294
            ],
            [
              -73.18948,
              44.479215
            ],
            [
              -73.188515,
              44.479246
            ],
            [
              -73.188204,
              44.478166
            ],
            [
              -73.188536,
              44.477133
            ],
            [
              -73.190392,
              44.477003
            ],
            [
              -73.190199,
              44.476306
            ],
            [
              -73.190349,
              44.476275
            ],
            [
              -73.190328,
              44.476122
            ],
            [
              -73.190918,
              44.476076
            ],
            [
              -73.190854,
              44.475755
            ],
            [
              -73.190274,
              44.475763
            ],
            [
              -73.190081,
              44.475165
            ],
            [
              -73.190703,
              44.475097
            ],
            [
              -73.1907033402637,
              44.47509705003878
            ],
            [
              -73.19013495427012,
              44.472897407488084
            ],
            [
              -73.19013476371767,
              44.47289834484868
            ],
            [
              -73.18992050524253,
              44.472558586131115
            ],
            [
              -73.18992,
              44.472559
            ],
            [
              -73.189808,
              44.472451
            ],
            [
              -73.188552,
              44.471908
            ],
            [
              -73.187254,
              44.473366
            ],
            [
              -73.186744,
              44.473206
            ],
            [
              -73.186621,
              44.473121
            ],
            [
              -73.186187,
              44.47301
            ],
            [
              -73.184652,
              44.472559
            ],
            [
              -73.183697,
              44.472413
            ],
            [
              -73.182673,
              44.472938
            ],
            [
              -73.177003,
              44.478802
            ],
            [
              -73.180736,
              44.481106
            ],
            [
              -73.180983,
              44.481014
            ],
            [
              -73.18108,
              44.480907
            ],
            [
              -73.181595,
              44.481205
            ],
            [
              -73.181562,
              44.481611
            ],
            [
              -73.183933,
              44.48302
            ],
            [
              -73.184223,
              44.483326
            ],
            [
              -73.184631,
              44.484344
            ],
            [
              -73.184663,
              44.484482
            ],
            [
              -73.184652,
              44.484964
            ],
            [
              -73.186551,
              44.482315
            ],
            [
              -73.187817,
              44.483693
            ],
            [
              -73.189652,
              44.482897
            ],
            [
              -73.188719,
              44.481825
            ],
            [
              -73.191369,
              44.480769
            ]
          ]
        ]
      }
    },
    {
      "type": "Feature",
      "properties": {
        "area_id": "redstone",
        "name": "Redstone Campus",
        "kind": "campus",
        "color": "#a3123a",
        "description": "The residential campus on the old Redstone estate.",
        "provisional": false
      },
      "geometry": {
        "type": "Polygon",
        "coordinates": [
          [
            [
              -73.201389,
              44.465687
            ],
            [
              -73.199126,
              44.465798
            ],
            [
              -73.198417,
              44.465963
            ],
            [
              -73.19838,
              44.465993
            ],
            [
              -73.198385,
              44.466506
            ],
            [
              -73.19564462405498,
              44.4666714118621
            ],
            [
              -73.19568157196046,
              44.467172405287904
            ],
            [
              -73.19574594497682,
              44.46867309026481
            ],
            [
              -73.1963360309601,
              44.46845105257265
            ],
            [
              -73.19661498069765,
              44.46868074672188
            ],
            [
              -73.19690465927125,
              44.469599514279736
            ],
            [
              -73.1963896751404,
              44.47028092421102
            ],
            [
              -73.19618582725526,
              44.47057186085934
            ],
            [
              -73.19609999656679,
              44.470947013870386
            ],
            [
              -73.1962287425995,
              44.47130685224785
            ],
            [
              -73.19659352302553,
              44.47181980950358
            ],
            [
              -73.19674372673036,
              44.4722791703837
            ],
            [
              -73.19705486297609,
              44.4724476018005
            ],
            [
              -73.19754838943483,
              44.4720035542895
            ],
            [
              -73.19780541148482,
              44.47198290553717
            ],
            [
              -73.19779,
              44.47164
            ],
            [
              -73.200536,
              44.471582
            ],
            [
              -73.200429,
              44.468811
            ],
            [
              -73.201389,
              44.465687
            ]
          ]
        ]
      }
    },
    {
      "type": "Feature",
      "properties": {
        "area_id": "athletic",
        "name": "Athletic Campus",
        "kind": "campus",
        "color": "#6b21a8",
        "description": "Playing fields, the track and the athletic facilities.",
        "provisional": false
      },
      "geometry": {
        "type": "Polygon",
        "coordinates": [
          [
            [
              -73.197806,
              44.471996
            ],
            [
              -73.19780541148482,
              44.47198290553717
            ],
            [
              -73.19754838943483,
              44.4720035542895
            ],
            [
              -73.19705486297609,
              44.4724476018005
            ],
            [
              -73.19674372673036,
              44.4722791703837
            ],
            [
              -73.19659352302553,
              44.47181980950358
            ],
            [
              -73.1962287425995,
              44.47130685224785
            ],
            [
              -73.19609999656679,
              44.470947013870386
            ],
            [
              -73.19618582725526,
              44.47057186085934
            ],
            [
              -73.1963896751404,
              44.47028092421102
            ],
            [
              -73.19690465927125,
              44.469599514279736
            ],
            [
              -73.19661498069765,
              44.46868074672188
            ],
            [
              -73.1963360309601,
              44.46845105257265
            ],
            [
              -73.19574594497682,
              44.46867309026481
            ],
            [
              -73.19568157196046,
              44.467172405287904
            ],
            [
              -73.19564462405498,
              44.4666714118621
            ],
            [
              -73.19146,
              44.466924
            ],
            [
              -73.192356,
              44.471659
            ],
            [
              -73.191728,
              44.471739
            ],
            [
              -73.191717,
              44.471682
            ],
            [
              -73.190998,
              44.471762
            ],
            [
              -73.191106,
              44.471931
            ],
            [
              -73.190628,
              44.472092
            ],
            [
              -73.19028228542933,
              44.47244612384401
            ],
            [
              -73.190258,
              44.472471
            ],
            [
              -73.19013489043193,
              44.472416831790056
            ],
            [
              -73.190108,
              44.472405
            ],
            [
              -73.18997992604282,
              44.472509911645766
            ],
            [
              -73.19667130708696,
              44.475450575805134
            ],
            [
              -73.19668993015532,
              44.475419015584755
            ],
            [
              -73.19669205356934,
              44.47541994243144
            ],
            [
              -73.1966959381927,
              44.47540883385851
            ],
            [
              -73.19671898259753,
              44.475369780868945
            ],
            [
              -73.19671085969944,
              44.47536616391869
            ],
            [
              -73.196706,
              44.475364
            ],
            [
              -73.19671409275584,
              44.47535475535557
            ],
            [
              -73.19671535243086,
              44.47535331638374
            ],
            [
              -73.19698,
              44.475051
            ],
            [
              -73.19684307860926,
              44.474988067186864
            ],
            [
              -73.196497,
              44.474829
            ],
            [
              -73.19715762071026,
              44.474088594179804
            ],
            [
              -73.197532,
              44.473669
            ],
            [
              -73.197784,
              44.47244
            ],
            [
              -73.19779223318432,
              44.472273839370985
            ],
            [
              -73.197806,
              44.471996
            ]
          ]
        ]
      }
    },
    {
      "type": "Feature",
      "properties": {
        "area_id": "spear",
        "name": "Spear Street Campus",
        "kind": "campus",
        "color": "#0f766e",
        "description": "The detached research and farm land south of the main campus, along Spear Street.",
        "provisional": false
      },
      "geometry": {
        "type": "Polygon",
        "coordinates": [
          [
            [
              -73.1966257095337,
              44.45660526585251
            ],
            [
              -73.19600343704225,
              44.453358166444865
            ],
            [
              -73.19402933120729,
              44.453434751057024
            ],
            [
              -73.19366455078126,
              44.45117546277938
            ],
            [
              -73.19222688674928,
              44.45152010562359
            ],
            [
              -73.1917440891266,
              44.45156605784914
            ],
            [
              -73.18986654281618,
              44.45195665030668
            ],
            [
              -73.1887722015381,
              44.45260763193094
            ],
            [
              -73.18897604942323,
              44.45367216271644
            ],
            [
              -73.18944811820985,
              44.45628362726978
            ],
            [
              -73.18469524383546,
              44.456781400516135
            ],
            [
              -73.18584284515713,
              44.46334941117706
            ],
            [
              -73.18584054708482,
              44.4633496513525
            ],
            [
              -73.18587541580202,
              44.4635124124868
            ],
            [
              -73.19085627794267,
              44.46295327822142
            ],
            [
              -73.19082868726503,
              44.462846584795855
            ],
            [
              -73.19083213806154,
              44.46284623523155
            ],
            [
              -73.18993091583253,
              44.45818280086578
            ],
            [
              -73.19170117378236,
              44.45766206586496
            ],
            [
              -73.19497346878053,
              44.45679671654875
            ],
            [
              -73.1966257095337,
              44.45660526585251
            ]
          ]
        ]
      }
    }
  ]
}
